SXM-9                   
1 62259U 24234A   26060.15739147  .00000000  00000+0  00000+0 0  9998
2 62259   0.0162 123.8279 0004179 183.7481 182.8954  1.00268782  4498
TJS-12                  
1 62374U 24246A   26060.50253223 -.00000251  00000+0  00000+0 0  9993
2 62374   0.9173 291.5340 0002031  15.6532 179.4664  1.00268001  4487
NUVIEW ALPHA            
1 62455U 24252B   26060.43067949 -.00000233  00000+0  00000+0 0  9990
2 62455   0.0558  30.6390 0002665 323.1200 237.3805  1.00270988  2749
AGILA                   
1 62456U 24252C   26060.49407764 -.00000201  00000+0  00000+0 0  9995
2 62456   0.0264 147.4283 0001442 202.6029 139.2396  1.00270426  4085
NUVIEW BRAVO            
1 62457U 24252D   26060.43067949 -.00000233  00000+0  00000+0 0  9992
2 62457   0.0654 174.7468 0000657 197.8946 218.4729  1.00270115  2710
THURAYA-4               
1 62483U 25001A   26060.45563961  .00000121  00000+0  00000+0 0  9996
2 62483   0.0192  98.4431 0000224 184.7496  84.3777  1.00272608  3097
SHIJIAN-25 (SJ-25)      
1 62485U 25002A   26060.78369968 -.00000367  00000+0  00000+0 0  9999
2 62485   4.8591  61.7887 0047000 166.0919 340.9314  1.00257456  4282
TJS-14                  
1 62804U 25017A   26060.30804561  .00000096  00000+0  00000+0 0  9999
2 62804   1.0351 289.9057 0002381  45.3290 313.1343  1.00268392  4181
SPAINSAT NG I           
1 62852U 25021A   26060.31021229  .00000000  00000+0  00000+0 0  9995
2 62852   0.0288 136.4439 0000172 157.7689   5.5265  1.00270739  2909
QZS-6 (MICHIBIKI-6)     
1 62876U 25023A   26060.50858034 -.00000251  00000+0  00000+0 0  9995
2 62876   0.0448 296.8308 0001948  33.2713 102.7935  1.00270649  3878
ZHONGXING-10R           
1 63075U 25036A   26060.39774601 -.00000370  00000+0  00000+0 0  9997
2 63075   0.0390 243.0488 0001125 331.1783 198.6559  1.00269598  3869
TJS-15                  
1 63157U 25045A   26060.76464994 -.00000281  00000+0  00000+0 0  9991
2 63157   0.2121  88.1706 0007161 258.8640 182.0895  1.00268224  3683
TIANLIAN 2-04           
1 63361U 25062A   26060.17778502 -.00000157  00000+0  00000+0 0  9997
2 63361   4.6520 275.9137 0035348   9.1315  17.9626  1.00271608  3520
TJS-16                  
1 63397U 25064A   26060.77747748 -.00000123  00000+0  00000+0 0  9995
2 63397   0.8210  81.9604 0005286 254.7389 263.3177  1.00272136  3316
TJS-17                  
1 63524U 25073A   26060.76873327 -.00000088  00000+0  00000+0 0  9999
2 63524   0.7864  83.5734 0004590 245.3825 271.8219  1.00271390  3213
TIANLIAN 2-05           
1 63662U 25084A   26060.30856561  .00000102  00000+0  00000+0 0  9991
2 63662   4.7245 281.0072 0003144  74.8482 294.6813  1.00272356  3307
TJS-19                  
1 63924U 25097A   26060.76270781 -.00000296  00000+0  00000+0 0  9995
2 63924   3.4701 315.7716 0003217 341.8309 277.6479  1.00263391  3068
CHINASAT 3B             
1 64062U 25106A   26059.90976659 -.00000064  00000+0  00000+0 0  9994
2 64062   0.0161 119.1978 0002258 192.6648 341.6466  1.00270904  2978
SXM-10                  
1 64290U 25122A   26060.17169755 -.00000035  00000+0  00000+0 0  9995
2 64290   0.0210  63.5079 0002726 296.8735 104.2121  1.00272008  2602
CHINASAT 9C             
1 64470U 25132A   26060.51036331 -.00000266  00000+0  00000+0 0  9993
2 64470   0.0134 121.8185 0002760 202.3877 111.0144  1.00272777  3065
MTG-S1                  
1 64723U 25143A   26060.38447707 -.00000050  00000+0  00000+0 0  9995
2 64723   0.6600 325.7595 0002734 343.0673 345.3247  1.00268967  2339
DROR 1                  
1 64784U 25148A   26060.38447707 -.00000053  00000+0  00000+0 0  9990
2 64784   0.0190  88.2716 0003561 253.0724 312.2238  1.00271362  2219
SHIYAN-29               
1 65486U 25196A   26059.99131697 -.00000275  00000+0  00000+0 0  9992
2 65486  28.7071  19.8963 0010347 184.6612  45.3070  1.00289425  1792
TJS-20                  
1 66142U 25238A   26060.50091727  .00000006  00000+0  00000+0 0  9998
2 66142   5.7090 299.9564 0007255  86.9696  15.1231  1.00268020  1259
CMS-03 (GSAT-7R)        
1 66311U 25249B   26060.39254598 -.00000131  00000+0  00000+0 0  9992
2 66311   0.0685  82.3628 0000893 352.7134 309.6690  0.99990257  1264
