OBJECT_NAME,OBJECT_ID,EPOCH,MEAN_MOTION,ECCENTRICITY,INCLINATION,RA_OF_ASC_NODE,ARG_OF_PERICENTER,MEAN_ANOMALY,EPHEMERIS_TYPE,CLASSIFICATION_TYPE,NORAD_CAT_ID,ELEMENT_SET_NO,REV_AT_EPOCH,BSTAR,MEAN_MOTION_DOT,MEAN_MOTION_DDOT
SXM-9,2024-234A,2026-03-01T03:46:38.623008,1.00268782,.0004179,0.0162,123.8279,183.7481,182.8954,0,U,62259,999,449,0,0,0
TJS-12,2024-246A,2026-03-01T12:03:38.784672,1.00268001,.0002031,0.9173,291.5340,15.6532,179.4664,0,U,62374,999,448,0,-.251E-5,0
NUVIEW ALPHA,2024-252B,2026-03-01T10:20:10.707936,1.00270988,.0002665,0.0558,30.6390,323.1200,237.3805,0,U,62455,999,274,0,-.233E-5,0
AGILA,2024-252C,2026-03-01T11:51:28.308096,1.00270426,.0001442,0.0264,147.4283,202.6029,139.2396,0,U,62456,999,408,0,-.201E-5,0
NUVIEW BRAVO,2024-252D,2026-03-01T10:20:10.707936,1.00270115,.0000657,0.0654,174.7468,197.8946,218.4729,0,U,62457,999,271,0,-.233E-5,0
THURAYA-4,2025-001A,2026-03-01T10:56:07.262304,1.00272608,.0000224,0.0192,98.4431,184.7496,84.3777,0,U,62483,999,309,0,.121E-5,0
SHIJIAN-25 (SJ-25),2025-002A,2026-03-01T18:48:31.652352,1.00257456,.0047,4.8591,61.7887,166.0919,340.9314,0,U,62485,999,428,0,-.367E-5,0
TJS-14,2025-017A,2026-03-01T07:23:35.140704,1.00268392,.0002381,1.0351,289.9057,45.3290,313.1343,0,U,62804,999,418,0,.96E-6,0
SPAINSAT NG I,2025-021A,2026-03-01T07:26:42.341856,1.00270739,.0000172,0.0288,136.4439,157.7689,5.5265,0,U,62852,999,290,0,0,0
QZS-6 (MICHIBIKI-6),2025-023A,2026-03-01T12:12:21.341376,1.00270649,.0001948,0.0448,296.8308,33.2713,102.7935,0,U,62876,999,387,0,-.251E-5,0
ZHONGXING-10R,2025-036A,2026-03-01T09:32:45.255264,1.00269598,.0001125,0.0390,243.0488,331.1783,198.6559,0,U,63075,999,386,0,-.37E-5,0
TJS-15,2025-045A,2026-03-01T18:21:05.754816,1.00268224,.0007161,0.2121,88.1706,258.8640,182.0895,0,U,63157,999,368,0,-.281E-5,0
TIANLIAN 2-04,2025-062A,2026-03-01T04:16:00.625728,1.00271608,.0035348,4.6520,275.9137,9.1315,17.9626,0,U,63361,999,352,0,-.157E-5,0
TJS-16,2025-064A,2026-03-01T18:39:34.054272,1.00272136,.0005286,0.8210,81.9604,254.7389,263.3177,0,U,63397,999,331,0,-.123E-5,0
TJS-17,2025-073A,2026-03-01T18:26:58.554528,1.00271390,.000459,0.7864,83.5734,245.3825,271.8219,0,U,63524,999,321,0,-.88E-6,0
TIANLIAN 2-05,2025-084A,2026-03-01T07:24:20.068704,1.00272356,.0003144,4.7245,281.0072,74.8482,294.6813,0,U,63662,999,330,0,.102E-5,0
TJS-19,2025-097A,2026-03-01T18:18:17.954784,1.00263391,.0003217,3.4701,315.7716,341.8309,277.6479,0,U,63924,999,306,0,-.296E-5,0
CHINASAT 3B,2025-106A,2026-02-28T21:50:03.833376,1.00270904,.0002258,0.0161,119.1978,192.6648,341.6466,0,U,64062,999,297,0,-.64E-6,0
SXM-10,2025-122A,2026-03-01T04:07:14.668320,1.00272008,.0002726,0.0210,63.5079,296.8735,104.2121,0,U,64290,999,260,0,-.35E-6,0
CHINASAT 9C,2025-132A,2026-03-01T12:14:55.389984,1.00272777,.000276,0.0134,121.8185,202.3877,111.0144,0,U,64470,999,306,0,-.266E-5,0
MTG-S1,2025-143A,2026-03-01T09:13:38.818848,1.00268967,.0002734,0.6600,325.7595,343.0673,345.3247,0,U,64723,999,233,0,-.5E-6,0
DROR 1,2025-148A,2026-03-01T09:13:38.818848,1.00271362,.0003561,0.0190,88.2716,253.0724,312.2238,0,U,64784,999,221,0,-.53E-6,0
SHIYAN-29,2025-196A,2026-02-28T23:47:29.786208,1.00289425,.0010347,28.7071,19.8963,184.6612,45.3070,0,U,65486,999,179,0,-.275E-5,0
TJS-20,2025-238A,2026-03-01T12:01:19.252128,1.00268020,.0007255,5.7090,299.9564,86.9696,15.1231,0,U,66142,999,125,0,.6E-7,0
CMS-03 (GSAT-7R),2025-249B,2026-03-01T09:25:15.972672,0.99990257,.0000893,0.0685,82.3628,352.7134,309.6690,0,U,66311,999,126,0,-.131E-5,0